{"fetched_at":"2026-07-12T17:32:27.314Z","source":"https://celestrak.org/NORAD/elements/gp.php?GROUP=spire&FORMAT=JSON","constellation":"spire","records":[{"OBJECT_NAME":"LEMUR-2-VALHALLA","OBJECT_ID":"2024-022B","EPOCH":"2026-07-12T13:05:03.405120","CLASSIFICATION_TYPE":"U","MEAN_MOTION":15.40435155,"ECCENTRICITY":0.0009495,"INCLINATION":97.4084,"RA_OF_ASC_NODE":43.8528,"ARG_OF_PERICENTER":32.9596,"MEAN_ANOMALY":327.2241,"EPHEMERIS_TYPE":0,"NORAD_CAT_ID":58900,"ELEMENT_SET_NO":999,"REV_AT_EPOCH":13617,"BSTAR":0.00026232,"MEAN_MOTION_DOT":0.00010549,"MEAN_MOTION_DDOT":0},{"OBJECT_NAME":"LEMUR-2-CAEL","OBJECT_ID":"2024-022E","EPOCH":"2026-07-12T12:47:42.014688","CLASSIFICATION_TYPE":"U","MEAN_MOTION":15.4179644,"ECCENTRICITY":0.000739,"INCLINATION":97.4069,"RA_OF_ASC_NODE":44.8221,"ARG_OF_PERICENTER":18.8003,"MEAN_ANOMALY":341.3516,"EPHEMERIS_TYPE":0,"NORAD_CAT_ID":58903,"ELEMENT_SET_NO":999,"REV_AT_EPOCH":13624,"BSTAR":0.00026918,"MEAN_MOTION_DOT":0.00011322,"MEAN_MOTION_DDOT":0},{"OBJECT_NAME":"LEMUR-2-JOHNNYTRUONG","OBJECT_ID":"2024-043BA","EPOCH":"2026-07-12T09:36:00.647136","CLASSIFICATION_TYPE":"U","MEAN_MOTION":15.6240042,"ECCENTRICITY":0.0004224,"INCLINATION":97.5383,"RA_OF_ASC_NODE":346.7036,"ARG_OF_PERICENTER":101.1525,"MEAN_ANOMALY":259.0207,"EPHEMERIS_TYPE":0,"NORAD_CAT_ID":59146,"ELEMENT_SET_NO":999,"REV_AT_EPOCH":13197,"BSTAR":0.00032509,"MEAN_MOTION_DOT":0.00028738,"MEAN_MOTION_DDOT":0},{"OBJECT_NAME":"LEMUR-2-TOMATOKECHUP","OBJECT_ID":"2024-149D","EPOCH":"2026-07-11T19:02:16.185696","CLASSIFICATION_TYPE":"U","MEAN_MOTION":15.36537067,"ECCENTRICITY":0.00031228,"INCLINATION":97.3803,"RA_OF_ASC_NODE":274.9096,"ARG_OF_PERICENTER":128.0995,"MEAN_ANOMALY":232.0531,"EPHEMERIS_TYPE":0,"NORAD_CAT_ID":60471,"ELEMENT_SET_NO":999,"REV_AT_EPOCH":10594,"BSTAR":0.00018430322,"MEAN_MOTION_DOT":0.0000649,"MEAN_MOTION_DDOT":0},{"OBJECT_NAME":"LEMUR-2-STELLA","OBJECT_ID":"2024-149BT","EPOCH":"2026-07-11T18:22:22.824480","CLASSIFICATION_TYPE":"U","MEAN_MOTION":15.12328256,"ECCENTRICITY":0.00011848,"INCLINATION":97.674,"RA_OF_ASC_NODE":275.3352,"ARG_OF_PERICENTER":113.7387,"MEAN_ANOMALY":246.3968,"EPHEMERIS_TYPE":0,"NORAD_CAT_ID":60533,"ELEMENT_SET_NO":999,"REV_AT_EPOCH":10421,"BSTAR":0.00037866771,"MEAN_MOTION_DOT":0.00006496,"MEAN_MOTION_DDOT":0},{"OBJECT_NAME":"LEMUR-2-MARHISYAM","OBJECT_ID":"2024-149BW","EPOCH":"2026-07-12T11:35:49.089984","CLASSIFICATION_TYPE":"U","MEAN_MOTION":15.11746387,"ECCENTRICITY":0.0002738,"INCLINATION":97.6886,"RA_OF_ASC_NODE":276.5309,"ARG_OF_PERICENTER":74.5269,"MEAN_ANOMALY":285.6263,"EPHEMERIS_TYPE":0,"NORAD_CAT_ID":60536,"ELEMENT_SET_NO":999,"REV_AT_EPOCH":10430,"BSTAR":0.00035251,"MEAN_MOTION_DOT":0.00005945,"MEAN_MOTION_DDOT":0},{"OBJECT_NAME":"LEMUR-2-AHMED-ASRAR","OBJECT_ID":"2024-149DN","EPOCH":"2026-07-11T18:21:43.523712","CLASSIFICATION_TYPE":"U","MEAN_MOTION":15.13261688,"ECCENTRICITY":0.00007717,"INCLINATION":97.7007,"RA_OF_ASC_NODE":277.998,"ARG_OF_PERICENTER":214.4074,"MEAN_ANOMALY":145.7107,"EPHEMERIS_TYPE":0,"NORAD_CAT_ID":60576,"ELEMENT_SET_NO":999,"REV_AT_EPOCH":10428,"BSTAR":0.00037730328,"MEAN_MOTION_DOT":0.00006643,"MEAN_MOTION_DDOT":0},{"OBJECT_NAME":"LEMUR-2-LLOYD","OBJECT_ID":"2024-149DP","EPOCH":"2026-07-12T03:59:10.663296","CLASSIFICATION_TYPE":"U","MEAN_MOTION":15.09716355,"ECCENTRICITY":0.00047525,"INCLINATION":97.6751,"RA_OF_ASC_NODE":274.3148,"ARG_OF_PERICENTER":78.6462,"MEAN_ANOMALY":281.53,"EPHEMERIS_TYPE":0,"NORAD_CAT_ID":60577,"ELEMENT_SET_NO":999,"REV_AT_EPOCH":10416,"BSTAR":0.00038904839,"MEAN_MOTION_DOT":0.0000621,"MEAN_MOTION_DDOT":0},{"OBJECT_NAME":"LEMUR-2-SQUIRRELCOMM","OBJECT_ID":"2024-149DQ","EPOCH":"2026-07-12T00:24:57.912480","CLASSIFICATION_TYPE":"U","MEAN_MOTION":15.07428709,"ECCENTRICITY":0.00042727,"INCLINATION":97.6718,"RA_OF_ASC_NODE":273.8533,"ARG_OF_PERICENTER":342.4944,"MEAN_ANOMALY":17.6135,"EPHEMERIS_TYPE":0,"NORAD_CAT_ID":60578,"ELEMENT_SET_NO":999,"REV_AT_EPOCH":10414,"BSTAR":0.00021585947,"MEAN_MOTION_DOT":0.00003206,"MEAN_MOTION_DDOT":0},{"OBJECT_NAME":"LEMUR-2-SIERRINI","OBJECT_ID":"2024-149DR","EPOCH":"2026-07-12T01:09:24.779808","CLASSIFICATION_TYPE":"U","MEAN_MOTION":15.114698,"ECCENTRICITY":0.00063696,"INCLINATION":97.6843,"RA_OF_ASC_NODE":275.7574,"ARG_OF_PERICENTER":98.6701,"MEAN_ANOMALY":261.5251,"EPHEMERIS_TYPE":0,"NORAD_CAT_ID":60579,"ELEMENT_SET_NO":999,"REV_AT_EPOCH":10421,"BSTAR":0.00043429045,"MEAN_MOTION_DOT":0.00007287,"MEAN_MOTION_DDOT":0},{"OBJECT_NAME":"LEMUR-2-WILSON","OBJECT_ID":"2025-009CP","EPOCH":"2026-07-12T10:59:45.997728","CLASSIFICATION_TYPE":"U","MEAN_MOTION":14.95271893,"ECCENTRICITY":0.0002226,"INCLINATION":97.7023,"RA_OF_ASC_NODE":271.4799,"ARG_OF_PERICENTER":339.793,"MEAN_ANOMALY":20.3202,"EPHEMERIS_TYPE":0,"NORAD_CAT_ID":62694,"ELEMENT_SET_NO":999,"REV_AT_EPOCH":8113,"BSTAR":0.000080106,"MEAN_MOTION_DOT":0.00000825,"MEAN_MOTION_DDOT":0},{"OBJECT_NAME":"LEMUR-2-STAR-FOX","OBJECT_ID":"2025-009CR","EPOCH":"2026-07-12T04:43:59.553120","CLASSIFICATION_TYPE":"U","MEAN_MOTION":15.02819173,"ECCENTRICITY":0.00026162,"INCLINATION":97.692,"RA_OF_ASC_NODE":274.6272,"ARG_OF_PERICENTER":53.8668,"MEAN_ANOMALY":306.2799,"EPHEMERIS_TYPE":0,"NORAD_CAT_ID":62696,"ELEMENT_SET_NO":999,"REV_AT_EPOCH":8131,"BSTAR":0.000258913,"MEAN_MOTION_DOT":0.00003406,"MEAN_MOTION_DDOT":0},{"OBJECT_NAME":"LEMUR-2-ARIANNA","OBJECT_ID":"2025-009CU","EPOCH":"2026-07-11T19:06:30.499776","CLASSIFICATION_TYPE":"U","MEAN_MOTION":15.02817181,"ECCENTRICITY":0.00029525,"INCLINATION":97.6857,"RA_OF_ASC_NODE":273.9837,"ARG_OF_PERICENTER":61.1158,"MEAN_ANOMALY":299.0362,"EPHEMERIS_TYPE":0,"NORAD_CAT_ID":62699,"ELEMENT_SET_NO":999,"REV_AT_EPOCH":8125,"BSTAR":0.00027573678,"MEAN_MOTION_DOT":0.00003632,"MEAN_MOTION_DDOT":0},{"OBJECT_NAME":"LEMUR-2-ALISIA","OBJECT_ID":"2025-009DB","EPOCH":"2026-07-12T04:02:56.519808","CLASSIFICATION_TYPE":"U","MEAN_MOTION":15.03147322,"ECCENTRICITY":0.00039042,"INCLINATION":97.6972,"RA_OF_ASC_NODE":275.1716,"ARG_OF_PERICENTER":138.4642,"MEAN_ANOMALY":221.6881,"EPHEMERIS_TYPE":0,"NORAD_CAT_ID":62706,"ELEMENT_SET_NO":999,"REV_AT_EPOCH":10391,"BSTAR":0.00037072191,"MEAN_MOTION_DOT":0.00004948,"MEAN_MOTION_DDOT":0},{"OBJECT_NAME":"LEMUR-2-ROUNDTRIPPER","OBJECT_ID":"2025-009DG","EPOCH":"2026-07-12T04:13:28.443360","CLASSIFICATION_TYPE":"U","MEAN_MOTION":15.04200239,"ECCENTRICITY":0.00043759,"INCLINATION":97.7248,"RA_OF_ASC_NODE":275.823,"ARG_OF_PERICENTER":70.1877,"MEAN_ANOMALY":289.982,"EPHEMERIS_TYPE":0,"NORAD_CAT_ID":62711,"ELEMENT_SET_NO":999,"REV_AT_EPOCH":8138,"BSTAR":0.0003858306,"MEAN_MOTION_DOT":0.00005299,"MEAN_MOTION_DDOT":0},{"OBJECT_NAME":"LEMUR-2-MYNAMEISJEFF","OBJECT_ID":"2025-009DH","EPOCH":"2026-07-12T04:11:16.161504","CLASSIFICATION_TYPE":"U","MEAN_MOTION":15.04192021,"ECCENTRICITY":0.00038031,"INCLINATION":97.73,"RA_OF_ASC_NODE":276.2178,"ARG_OF_PERICENTER":104.0635,"MEAN_ANOMALY":256.1013,"EPHEMERIS_TYPE":0,"NORAD_CAT_ID":62712,"ELEMENT_SET_NO":999,"REV_AT_EPOCH":8138,"BSTAR":0.00037556025,"MEAN_MOTION_DOT":0.00005155,"MEAN_MOTION_DDOT":0}]}
