LEMUR-2-VALHALLA        
1 58900U 24022B   26193.54517831  .00010549  00000+0  26232-3 0  9993
2 58900  97.4084  43.8528 0009495  32.9596 327.2241 15.40435155136179
LEMUR-2-CAEL            
1 58903U 24022E   26193.53312518  .00011322  00000+0  26918-3 0  9991
2 58903  97.4069  44.8221 0007390  18.8003 341.3516 15.41796440136242
LEMUR-2-JOHNNYTRUONG    
1 59146U 24043BA  26193.40000749  .00028738  00000+0  32509-3 0  9992
2 59146  97.5383 346.7036 0004223 101.1525 259.0207 15.62400420131977
LEMUR-2-TOMATOKECHUP    
1 60471U 24149D   26192.79324289  .00006490  00000+0  18430-3 0  9999
2 60471  97.3803 274.9096 0003122 128.0995 232.0531 15.36537067105947
LEMUR-2-STELLA          
1 60533U 24149BT  26192.76554195  .00006496  00000+0  37867-3 0  9997
2 60533  97.6740 275.3352 0001184 113.7387 246.3968 15.12328256104214
LEMUR-2-MARHISYAM       
1 60536U 24149BW  26193.48320707  .00005945  00000+0  35251-3 0  9993
2 60536  97.6886 276.5309 0002738  74.5269 285.6263 15.11746387104304
LEMUR-2-AHMED-ASRAR     
1 60576U 24149DN  26192.76508708  .00006643  00000+0  37730-3 0  9996
2 60576  97.7007 277.9980 0000771 214.4074 145.7107 15.13261688104286
LEMUR-2-LLOYD           
1 60577U 24149DP  26193.16609564  .00006210  00000+0  38905-3 0  9999
2 60577  97.6751 274.3148 0004752  78.6462 281.5300 15.09716355104165
LEMUR-2-SQUIRRELCOMM    
1 60578U 24149DQ  26193.01733695  .00003206  00000+0  21586-3 0  9996
2 60578  97.6718 273.8533 0004272 342.4944  17.6135 15.07428709104148
LEMUR-2-SIERRINI        
1 60579U 24149DR  26193.04820347  .00007287  00000+0  43429-3 0  9994
2 60579  97.6843 275.7574 0006369  98.6701 261.5251 15.11469800104213
LEMUR-2-WILSON          
1 62694U 25009CP  26193.45817128  .00000825  00000+0  80106-4 0  9993
2 62694  97.7023 271.4799 0002226 339.7930  20.3202 14.95271893 81133
LEMUR-2-STAR-FOX        
1 62696U 25009CR  26193.19721705  .00003406  00000+0  25891-3 0  9998
2 62696  97.6920 274.6272 0002616  53.8668 306.2799 15.02819173 81311
LEMUR-2-ARIANNA         
1 62699U 25009CU  26192.79618634  .00003632  00000+0  27574-3 0  9993
2 62699  97.6857 273.9837 0002952  61.1158 299.0362 15.02817181 81256
LEMUR-2-ALISIA          
1 62706U 25009DB  26193.16870972  .00004948  00000+0  37072-3 0  9994
2 62706  97.6972 275.1716 0003904 138.4642 221.6881 15.03147322103916
LEMUR-2-ROUNDTRIPPER    
1 62711U 25009DG  26193.17602365  .00005299  00000+0  38583-3 0  9998
2 62711  97.7248 275.8230 0004375  70.1877 289.9820 15.04200239 81386
LEMUR-2-MYNAMEISJEFF    
1 62712U 25009DH  26193.17449261  .00005155  00000+0  37556-3 0  9993
2 62712  97.7300 276.2178 0003803 104.0635 256.1013 15.04192021 81385
